OBJECT_NAME,OBJECT_ID,EPOCH,MEAN_MOTION,ECCENTRICITY,INCLINATION,RA_OF_ASC_NODE,ARG_OF_PERICENTER,MEAN_ANOMALY,EPHEMERIS_TYPE,CLASSIFICATION_TYPE,NORAD_CAT_ID,ELEMENT_SET_NO,REV_AT_EPOCH,BSTAR,MEAN_MOTION_DOT,MEAN_MOTION_DDOT
TIANMU-1 21,2023-208C,2026-07-16T06:00:30.666816,15.35563362,.0006791,97.4534,317.1841,200.2678,159.8297,0,U,58662,999,14202,.15259E-3,.5194E-4,0
TIANMU-1 22,2023-208D,2026-07-16T03:39:43.978176,15.31434763,.0002825,97.4527,313.5228,213.9749,146.1311,0,U,58663,999,14176,.13425E-3,.3996E-4,0
TIANMU-1 15,2024-004A,2026-07-16T04:41:56.334624,15.26919489,.0006118,97.4668,23.3864,224.2793,135.7956,0,U,58700,999,14020,.10917E-3,.2812E-4,0
TIANMU-1 16,2024-004B,2026-07-16T04:26:40.378848,15.27022492,.0004496,97.4616,22.5919,240.8919,119.1870,0,U,58701,999,14020,.10487E-3,.2706E-4,0
TIANMU-1 17,2024-004C,2026-07-16T04:05:46.174848,15.27020290,.0003953,97.4642,23.0729,247.0830,112.9992,0,U,58702,999,14019,.10794E-3,.2787E-4,0
TIANMU-1 18,2024-004D,2026-07-16T05:05:46.888800,15.26935426,.0003838,97.4660,23.3773,220.1498,139.9457,0,U,58703,999,14020,.10322E-3,.2655E-4,0
INSAT-3DS,2024-033A,2026-07-16T03:46:38.667936,1.00270833,.0001089,0.0884,264.5566,224.0381,304.1257,0,U,58990,999,4735,0,-.166E-5,0
METEOR-M2 4,2024-039A,2026-07-16T03:56:36.899808,14.22432174,.000826,98.7026,156.1007,86.3811,273.8312,0,U,59051,999,12338,.94233E-5,-.23E-6,0
GOES 19,2024-119A,2026-07-16T02:41:57.552288,1.00271375,.0000377,0.0188,138.2561,64.7806,56.2032,0,U,60133,999,725,0,-.259E-5,0
MTG-S1,2025-143A,2026-07-16T03:03:20.248416,1.00273795,.000342,0.5841,345.3307,260.8550,93.2133,0,U,64723,999,370,0,-.18E-6,0
METOP-SGA1,2025-172A,2026-07-14T18:20:46.629312,14.19819127,.00070989,98.6631,254.9090,333.3306,26.7504,0,U,65159,999,4770,.2916334E-4,.19E-6,0
FENGYUN 3H,2025-219A,2026-07-15T20:40:50.193984,14.19924852,.000113,98.6770,137.0741,62.4544,297.6747,0,U,65815,999,4145,.23893E-4,.7E-7,0
