TIANMU-1 21             
1 58662U 23208C   26197.25035494  .00005194  00000+0  15259-3 0  9992
2 58662  97.4534 317.1841 0006791 200.2678 159.8297 15.35563362142023
TIANMU-1 22             
1 58663U 23208D   26197.15259234  .00003996  00000+0  13425-3 0  9993
2 58663  97.4527 313.5228 0002825 213.9749 146.1311 15.31434763141763
TIANMU-1 15             
1 58700U 24004A   26197.19579091  .00002812  00000+0  10917-3 0  9999
2 58700  97.4668  23.3864 0006118 224.2793 135.7956 15.26919489140200
TIANMU-1 16             
1 58701U 24004B   26197.18518957  .00002706  00000+0  10487-3 0  9997
2 58701  97.4616  22.5919 0004496 240.8919 119.1870 15.27022492140208
TIANMU-1 17             
1 58702U 24004C   26197.17067332  .00002787  00000+0  10794-3 0  9993
2 58702  97.4642  23.0729 0003953 247.0830 112.9992 15.27020290140199
TIANMU-1 18             
1 58703U 24004D   26197.21234825  .00002655  00000+0  10322-3 0  9993
2 58703  97.4660  23.3773 0003838 220.1498 139.9457 15.26935426140208
INSAT-3DS               
1 58990U 24033A   26197.15739199 -.00000166  00000+0  00000+0 0  9994
2 58990   0.0884 264.5566 0001089 224.0381 304.1257  1.00270833 47350
METEOR-M2 4             
1 59051U 24039A   26197.16431597 -.00000023  00000+0  94233-5 0  9990
2 59051  98.7026 156.1007 0008260  86.3811 273.8312 14.22432174123380
GOES 19                 
1 60133U 24119A   26197.11247167 -.00000259  00000+0  00000+0 0  9999
2 60133   0.0188 138.2561 0000377  64.7806  56.2032  1.00271375  7254
MTG-S1                  
1 64723U 25143A   26197.12731769 -.00000018  00000+0  00000+0 0  9996
2 64723   0.5841 345.3307 0003420 260.8550  93.2133  1.00273795  3707
METOP-SGA1              
1 65159U 25172A   26195.76442858  .00000019  00000+0  29163-4 0  9994
2 65159  98.6631 254.9090 0007098 333.3306  26.7504 14.19819127 47700
FENGYUN 3H              
1 65815U 25219A   26196.86169206  .00000007  00000+0  23893-4 0  9991
2 65815  98.6770 137.0741 0001130  62.4544 297.6747 14.19924852 41458
